{
  "type": "FeatureCollection",
  "features": [
    {
      "type": "Feature",
      "properties": {
        "norad_id": 36272,
        "name": "FENGYUN 1C DEB",
        "group": "fengyun-1c-debris",
        "lat": 54.56705901488803,
        "lon": 70.39317713434014,
        "alt_km": 857.5645569100943,
        "timestamp": "2025-12-26T15:29:39.727658+00:00",
        "meta_object_name": "FENGYUN 1C DEB",
        "meta_object_id": "1999-025DWZ",
        "meta_epoch": "2025-12-15T09:29:34.780416",
        "meta_mean_motion": 14.17259115,
        "meta_eccentricity": 0.01679127,
        "meta_inclination": 99.1362,
        "meta_ra_of_asc_node": 225.7589,
        "meta_arg_of_pericenter": 260.5869,
        "meta_mean_anomaly": 97.6289,
        "meta_ephemeris_type": 0,
        "meta_classification_type": "U",
        "meta_norad_cat_id": 36272,
        "meta_element_set_no": 999,
        "meta_rev_at_epoch": 63654,
        "meta_bstar": 0.00052291356,
        "meta_mean_motion_dot": 1.164e-05,
        "meta_mean_motion_ddot": 0,
        "tle_line1": "1 36272U 99025DWZ 25349.39554144  .00001164  00000+0  52291-3 0  9996",
        "tle_line2": "2 36272  99.1362 225.7589 0167912 260.5869  97.6289 14.17259115636543"
      },
      "geometry": {
        "type": "Point",
        "coordinates": [
          70.39317713434014,
          54.56705901488803
        ]
      }
    },
    {
      "type": "Feature",
      "properties": {
        "norad_id": 36273,
        "name": "FENGYUN 1C DEB",
        "group": "fengyun-1c-debris",
        "lat": 74.00677618854066,
        "lon": -165.02424285193035,
        "alt_km": 871.4623650021758,
        "timestamp": "2025-12-26T15:29:39.727668+00:00",
        "meta_object_name": "FENGYUN 1C DEB",
        "meta_object_id": "1999-025DXA",
        "meta_epoch": "2025-12-10T21:07:00.418080",
        "meta_mean_motion": 14.16564043,
        "meta_eccentricity": 0.0096501,
        "meta_inclination": 99.6045,
        "meta_ra_of_asc_node": 214.1863,
        "meta_arg_of_pericenter": 353.8475,
        "meta_mean_anomaly": 6.1504,
        "meta_ephemeris_type": 0,
        "meta_classification_type": "U",
        "meta_norad_cat_id": 36273,
        "meta_element_set_no": 999,
        "meta_rev_at_epoch": 66207,
        "meta_bstar": 0.00042955,
        "meta_mean_motion_dot": 8.45e-06,
        "meta_mean_motion_ddot": 0,
        "tle_line1": "1 36273U 99025DXA 25344.87986595  .00000845  00000+0  42955-3 0  9995",
        "tle_line2": "2 36273  99.6045 214.1863 0096501 353.8475   6.1504 14.16564043662078"
      },
      "geometry": {
        "type": "Point",
        "coordinates": [
          -165.02424285193035,
          74.00677618854066
        ]
      }
    },
    {
      "type": "Feature",
      "properties": {
        "norad_id": 36274,
        "name": "FENGYUN 1C DEB",
        "group": "fengyun-1c-debris",
        "lat": 75.06326681380285,
        "lon": 38.22839307616578,
        "alt_km": 823.8895280157149,
        "timestamp": "2025-12-26T15:29:39.727678+00:00",
        "meta_object_name": "FENGYUN 1C DEB",
        "meta_object_id": "1999-025DXB",
        "meta_epoch": "2025-12-24T23:29:20.675328",
        "meta_mean_motion": 14.23624847,
        "meta_eccentricity": 0.00631497,
        "meta_inclination": 99.1381,
        "meta_ra_of_asc_node": 73.6094,
        "meta_arg_of_pericenter": 196.6447,
        "meta_mean_anomaly": 343.9967,
        "meta_ephemeris_type": 0,
        "meta_classification_type": "U",
        "meta_norad_cat_id": 36274,
        "meta_element_set_no": 999,
        "meta_rev_at_epoch": 63159,
        "meta_bstar": 0.0030627834,
        "meta_mean_motion_dot": 7.085e-05,
        "meta_mean_motion_ddot": 0,
        "tle_line1": "1 36274U 99025DXB 25358.97871152  .00007085  00000+0  30628-2 0  9990",
        "tle_line2": "2 36274  99.1381  73.6094 0063149 196.6447 343.9967 14.23624847631590"
      },
      "geometry": {
        "type": "Point",
        "coordinates": [
          38.22839307616578,
          75.06326681380285
        ]
      }
    },
    {
      "type": "Feature",
      "properties": {
        "norad_id": 36278,
        "name": "FENGYUN 1C DEB",
        "group": "fengyun-1c-debris",
        "lat": -0.3430531967176615,
        "lon": -80.63857354199638,
        "alt_km": 850.8329027105565,
        "timestamp": "2025-12-26T15:29:39.727688+00:00",
        "meta_object_name": "FENGYUN 1C DEB",
        "meta_object_id": "1999-025DXF",
        "meta_epoch": "2025-12-25T12:23:20.936256",
        "meta_mean_motion": 14.17404058,
        "meta_eccentricity": 0.0060493,
        "meta_inclination": 99.1253,
        "meta_ra_of_asc_node": 278.1472,
        "meta_arg_of_pericenter": 254.2677,
        "meta_mean_anomaly": 105.1819,
        "meta_ephemeris_type": 0,
        "meta_classification_type": "U",
        "meta_norad_cat_id": 36278,
        "meta_element_set_no": 999,
        "meta_rev_at_epoch": 93657,
        "meta_bstar": 0.0004649,
        "meta_mean_motion_dot": 9.11e-06,
        "meta_mean_motion_ddot": 0,
        "tle_line1": "1 36278U 99025DXF 25359.51621454  .00000911  00000+0  46490-3 0  9999",
        "tle_line2": "2 36278  99.1253 278.1472 0060493 254.2677 105.1819 14.17404058936572"
      },
      "geometry": {
        "type": "Point",
        "coordinates": [
          -80.63857354199638,
          -0.3430531967176615
        ]
      }
    },
    {
      "type": "Feature",
      "properties": {
        "norad_id": 36279,
        "name": "FENGYUN 1C DEB",
        "group": "fengyun-1c-debris",
        "lat": -67.39222418703778,
        "lon": 136.8728880169525,
        "alt_km": 877.3463643320956,
        "timestamp": "2025-12-26T15:29:39.727698+00:00",
        "meta_object_name": "FENGYUN 1C DEB",
        "meta_object_id": "1999-025DXG",
        "meta_epoch": "2025-12-24T04:36:30.849408",
        "meta_mean_motion": 14.1473428,
        "meta_eccentricity": 0.00624156,
        "meta_inclination": 98.5623,
        "meta_ra_of_asc_node": 335.7298,
        "meta_arg_of_pericenter": 22.9202,
        "meta_mean_anomaly": 337.4736,
        "meta_ephemeris_type": 0,
        "meta_classification_type": "U",
        "meta_norad_cat_id": 36279,
        "meta_element_set_no": 999,
        "meta_rev_at_epoch": 89201,
        "meta_bstar": 0.00014307987,
        "meta_mean_motion_dot": 2.39e-06,
        "meta_mean_motion_ddot": 0,
        "tle_line1": "1 36279U 99025DXG 25358.19202372  .00000239  00000+0  14308-3 0  9993",
        "tle_line2": "2 36279  98.5623 335.7298 0062415  22.9202 337.4736 14.14734280892011"
      },
      "geometry": {
        "type": "Point",
        "coordinates": [
          136.8728880169525,
          -67.39222418703778
        ]
      }
    },
    {
      "type": "Feature",
      "properties": {
        "norad_id": 36280,
        "name": "FENGYUN 1C DEB",
        "group": "fengyun-1c-debris",
        "lat": 38.91121954973771,
        "lon": 22.121837915290858,
        "alt_km": 813.0165693758663,
        "timestamp": "2025-12-26T15:29:39.727708+00:00",
        "meta_object_name": "FENGYUN 1C DEB",
        "meta_object_id": "1999-025DXH",
        "meta_epoch": "2025-12-24T22:59:16.157760",
        "meta_mean_motion": 14.09776084,
        "meta_eccentricity": 0.00626128,
        "meta_inclination": 98.7659,
        "meta_ra_of_asc_node": 27.633,
        "meta_arg_of_pericenter": 30.8932,
        "meta_mean_anomaly": 87.4685,
        "meta_ephemeris_type": 0,
        "meta_classification_type": "U",
        "meta_norad_cat_id": 36280,
        "meta_element_set_no": 999,
        "meta_rev_at_epoch": 86526,
        "meta_bstar": 0.00090348933,
        "meta_mean_motion_dot": 1.574e-05,
        "meta_mean_motion_ddot": 0,
        "tle_line1": "1 36280U 99025DXH 25358.95782590  .00001574  00000+0  90349-3 0  9996",
        "tle_line2": "2 36280  98.7659  27.6330 0062612  30.8932  87.4685 14.09776084865269"
      },
      "geometry": {
        "type": "Point",
        "coordinates": [
          22.121837915290858,
          38.91121954973771
        ]
      }
    },
    {
      "type": "Feature",
      "properties": {
        "norad_id": 36281,
        "name": "FENGYUN 1C DEB",
        "group": "fengyun-1c-debris",
        "lat": 24.28584575386498,
        "lon": -82.35794429065838,
        "alt_km": 892.202918410394,
        "timestamp": "2025-12-26T15:29:39.727719+00:00",
        "meta_object_name": "FENGYUN 1C DEB",
        "meta_object_id": "1999-025DXJ",
        "meta_epoch": "2025-12-20T00:30:26.383680",
        "meta_mean_motion": 13.60294135,
        "meta_eccentricity": 0.02913999,
        "meta_inclination": 99.2595,
        "meta_ra_of_asc_node": 275.5857,
        "meta_arg_of_pericenter": 92.0584,
        "meta_mean_anomaly": 271.3952,
        "meta_ephemeris_type": 0,
        "meta_classification_type": "U",
        "meta_norad_cat_id": 36281,
        "meta_element_set_no": 999,
        "meta_rev_at_epoch": 84616,
        "meta_bstar": 0.00281607,
        "meta_mean_motion_dot": 2.757e-05,
        "meta_mean_motion_ddot": 0,
        "tle_line1": "1 36281U 99025DXJ 25354.02113870  .00002757  00000+0  28161-2 0  9996",
        "tle_line2": "2 36281  99.2595 275.5857 0291399  92.0584 271.3952 13.60294135846169"
      },
      "geometry": {
        "type": "Point",
        "coordinates": [
          -82.35794429065838,
          24.28584575386498
        ]
      }
    }
  ]
}